CCSDS_OMM_VERS = 2.0
CREATION_DATE  = 
ORIGINATOR     = 

OBJECT_NAME    = ENVISAT
OBJECT_ID      = 2002-009A
CENTER_NAME    = EARTH
REF_FRAME      = TEME
TIME_SYSTEM    = UTC
MEAN_ELEMENT_THEORY = SGP/SGP4

EPOCH          = 2025-11-22T21:07:05.807712
MEAN_MOTION    = 14.38988427
ECCENTRICITY   = .0001259
INCLINATION    = 98.3569
RA_OF_ASC_NODE = 278.1271
ARG_OF_PERICENTER = 80.9680
MEAN_ANOMALY   = 340.2358

EPHEMERIS_TYPE = 0
CLASSIFICATION_TYPE = U
NORAD_CAT_ID   = 27386
ELEMENT_SET_NO = 999
REV_AT_EPOCH   = 24381
BSTAR          = .57248E-4
MEAN_MOTION_DOT = .134E-5
MEAN_MOTION_DDOT = 0

CCSDS_OMM_VERS = 2.0
CREATION_DATE  = 
ORIGINATOR     = 

OBJECT_NAME    = IDEFIX & ARIANE 42P R/B
OBJECT_ID      = 2002-021B
CENTER_NAME    = EARTH
REF_FRAME      = TEME
TIME_SYSTEM    = UTC
MEAN_ELEMENT_THEORY = SGP/SGP4

EPOCH          = 2025-11-22T19:04:22.391040
MEAN_MOTION    = 14.30928994
ECCENTRICITY   = .001244
INCLINATION    = 98.5758
RA_OF_ASC_NODE = 261.7476
ARG_OF_PERICENTER = 137.8269
MEAN_ANOMALY   = 222.3873

EPHEMERIS_TYPE = 0
CLASSIFICATION_TYPE = U
NORAD_CAT_ID   = 27422
ELEMENT_SET_NO = 999
REV_AT_EPOCH   = 22873
BSTAR          = .14138E-3
MEAN_MOTION_DOT = .328E-5
MEAN_MOTION_DDOT = 0

CCSDS_OMM_VERS = 2.0
CREATION_DATE  = 
ORIGINATOR     = 

OBJECT_NAME    = AQUA
OBJECT_ID      = 2002-022A
CENTER_NAME    = EARTH
REF_FRAME      = TEME
TIME_SYSTEM    = UTC
MEAN_ELEMENT_THEORY = SGP/SGP4

EPOCH          = 2025-11-23T04:38:06.597024
MEAN_MOTION    = 14.61740456
ECCENTRICITY   = .0000596
INCLINATION    = 98.4010
RA_OF_ASC_NODE = 287.7585
ARG_OF_PERICENTER = 79.7525
MEAN_ANOMALY   = 44.9604

EPHEMERIS_TYPE = 0
CLASSIFICATION_TYPE = U
NORAD_CAT_ID   = 27424
ELEMENT_SET_NO = 999
REV_AT_EPOCH   = 25317
BSTAR          = .23809E-3
MEAN_MOTION_DOT = .1138E-4
MEAN_MOTION_DDOT = 0

CCSDS_OMM_VERS = 2.0
CREATION_DATE  = 
ORIGINATOR     = 

OBJECT_NAME    = CZ-4B R/B
OBJECT_ID      = 2002-024C
CENTER_NAME    = EARTH
REF_FRAME      = TEME
TIME_SYSTEM    = UTC
MEAN_ELEMENT_THEORY = SGP/SGP4

EPOCH          = 2025-11-23T02:55:04.459296
MEAN_MOTION    = 14.14521974
ECCENTRICITY   = .0049523
INCLINATION    = 98.9027
RA_OF_ASC_NODE = 15.9590
ARG_OF_PERICENTER = 326.6410
MEAN_ANOMALY   = 88.0755

EPHEMERIS_TYPE = 0
CLASSIFICATION_TYPE = U
NORAD_CAT_ID   = 27432
ELEMENT_SET_NO = 999
REV_AT_EPOCH   = 21417
BSTAR          = .57775E-4
MEAN_MOTION_DOT = .67E-6
MEAN_MOTION_DDOT = 0

CCSDS_OMM_VERS = 2.0
CREATION_DATE  = 
ORIGINATOR     = 

OBJECT_NAME    = MIDORI II (ADEOS-II)
OBJECT_ID      = 2002-056A
CENTER_NAME    = EARTH
REF_FRAME      = TEME
TIME_SYSTEM    = UTC
MEAN_ELEMENT_THEORY = SGP/SGP4

EPOCH          = 2025-11-22T19:59:14.656992
MEAN_MOTION    = 14.29186034
ECCENTRICITY   = .0000885
INCLINATION    = 98.7607
RA_OF_ASC_NODE = 279.6879
ARG_OF_PERICENTER = 22.6239
MEAN_ANOMALY   = 337.4981

EPHEMERIS_TYPE = 0
CLASSIFICATION_TYPE = U
NORAD_CAT_ID   = 27597
ELEMENT_SET_NO = 999
REV_AT_EPOCH   = 19503
BSTAR          = .1428E-3
MEAN_MOTION_DOT = .317E-5
MEAN_MOTION_DDOT = 0

CCSDS_OMM_VERS = 2.0
CREATION_DATE  = 
ORIGINATOR     = 

OBJECT_NAME    = H-2A R/B
OBJECT_ID      = 2002-056E
CENTER_NAME    = EARTH
REF_FRAME      = TEME
TIME_SYSTEM    = UTC
MEAN_ELEMENT_THEORY = SGP/SGP4

EPOCH          = 2025-11-22T22:20:48.804288
MEAN_MOTION    = 14.33654156
ECCENTRICITY   = .0071334
INCLINATION    = 98.3036
RA_OF_ASC_NODE = 286.4800
ARG_OF_PERICENTER = 119.2150
MEAN_ANOMALY   = 309.6028

EPHEMERIS_TYPE = 0
CLASSIFICATION_TYPE = U
NORAD_CAT_ID   = 27601
ELEMENT_SET_NO = 999
REV_AT_EPOCH   = 19881
BSTAR          = .11639E-3
MEAN_MOTION_DOT = .291E-5
MEAN_MOTION_DDOT = 0

CCSDS_OMM_VERS = 2.0
CREATION_DATE  = 
ORIGINATOR     = 

OBJECT_NAME    = CZ-4B R/B
OBJECT_ID      = 2003-049C
CENTER_NAME    = EARTH
REF_FRAME      = TEME
TIME_SYSTEM    = UTC
MEAN_ELEMENT_THEORY = SGP/SGP4

EPOCH          = 2025-11-22T22:13:51.768768
MEAN_MOTION    = 14.54882983
ECCENTRICITY   = .0047872
INCLINATION    = 98.6774
RA_OF_ASC_NODE = 312.7434
ARG_OF_PERICENTER = 196.2417
MEAN_ANOMALY   = 163.7247

EPHEMERIS_TYPE = 0
CLASSIFICATION_TYPE = U
NORAD_CAT_ID   = 28059
ELEMENT_SET_NO = 999
REV_AT_EPOCH   = 17107
BSTAR          = .10347E-3
MEAN_MOTION_DOT = .4E-5
MEAN_MOTION_DDOT = 0

CCSDS_OMM_VERS = 2.0
CREATION_DATE  = 
ORIGINATOR     = 

OBJECT_NAME    = CZ-2C R/B
OBJECT_ID      = 2004-012C
CENTER_NAME    = EARTH
REF_FRAME      = TEME
TIME_SYSTEM    = UTC
MEAN_ELEMENT_THEORY = SGP/SGP4

EPOCH          = 2025-11-23T02:34:17.217408
MEAN_MOTION    = 15.53732027
ECCENTRICITY   = .0017958
INCLINATION    = 97.7448
RA_OF_ASC_NODE = 18.1324
ARG_OF_PERICENTER = 346.2802
MEAN_ANOMALY   = 13.7960

EPHEMERIS_TYPE = 0
CLASSIFICATION_TYPE = U
NORAD_CAT_ID   = 28222
ELEMENT_SET_NO = 999
REV_AT_EPOCH   = 18767
BSTAR          = .48374E-3
MEAN_MOTION_DOT = .31151E-3
MEAN_MOTION_DDOT = 0

CCSDS_OMM_VERS = 2.0
CREATION_DATE  = 
ORIGINATOR     = 

OBJECT_NAME    = SL-16 R/B
OBJECT_ID      = 2004-021B
CENTER_NAME    = EARTH
REF_FRAME      = TEME
TIME_SYSTEM    = UTC
MEAN_ELEMENT_THEORY = SGP/SGP4

EPOCH          = 2025-11-22T19:43:21.532800
MEAN_MOTION    = 14.14580262
ECCENTRICITY   = .0006194
INCLINATION    = 71.0006
RA_OF_ASC_NODE = 96.7613
ARG_OF_PERICENTER = 221.5798
MEAN_ANOMALY   = 138.4854

EPHEMERIS_TYPE = 0
CLASSIFICATION_TYPE = U
NORAD_CAT_ID   = 28353
ELEMENT_SET_NO = 999
REV_AT_EPOCH   = 10772
BSTAR          = .13653E-3
MEAN_MOTION_DOT = .215E-5
MEAN_MOTION_DDOT = 0

CCSDS_OMM_VERS = 2.0
CREATION_DATE  = 
ORIGINATOR     = 

OBJECT_NAME    = CZ-4B R/B
OBJECT_ID      = 2004-035C
CENTER_NAME    = EARTH
REF_FRAME      = TEME
TIME_SYSTEM    = UTC
MEAN_ELEMENT_THEORY = SGP/SGP4

EPOCH          = 2025-11-23T02:25:03.707040
MEAN_MOTION    = 15.26928650
ECCENTRICITY   = .0033289
INCLINATION    = 97.3627
RA_OF_ASC_NODE = 357.7108
ARG_OF_PERICENTER = 349.5785
MEAN_ANOMALY   = 10.4760

EPHEMERIS_TYPE = 0
CLASSIFICATION_TYPE = U
NORAD_CAT_ID   = 28415
ELEMENT_SET_NO = 999
REV_AT_EPOCH   = 16363
BSTAR          = .31621E-3
MEAN_MOTION_DOT = .8423E-4
MEAN_MOTION_DDOT = 0

CCSDS_OMM_VERS = 2.0
CREATION_DATE  = 
ORIGINATOR     = 

OBJECT_NAME    = CZ-2C R/B
OBJECT_ID      = 2004-046B
CENTER_NAME    = EARTH
REF_FRAME      = TEME
TIME_SYSTEM    = UTC
MEAN_ELEMENT_THEORY = SGP/SGP4

EPOCH          = 2025-11-22T18:20:31.198272
MEAN_MOTION    = 14.26927639
ECCENTRICITY   = .0140672
INCLINATION    = 98.1971
RA_OF_ASC_NODE = 243.3858
ARG_OF_PERICENTER = 110.8852
MEAN_ANOMALY   = 250.7455

EPHEMERIS_TYPE = 0
CLASSIFICATION_TYPE = U
NORAD_CAT_ID   = 28480
ELEMENT_SET_NO = 999
REV_AT_EPOCH   = 9325
BSTAR          = .88291E-4
MEAN_MOTION_DOT = .198E-5
MEAN_MOTION_DDOT = 0

CCSDS_OMM_VERS = 2.0
CREATION_DATE  = 
ORIGINATOR     = 

OBJECT_NAME    = ARIANE 5 R/B
OBJECT_ID      = 2004-049H
CENTER_NAME    = EARTH
REF_FRAME      = TEME
TIME_SYSTEM    = UTC
MEAN_ELEMENT_THEORY = SGP/SGP4

EPOCH          = 2025-11-22T21:50:04.343136
MEAN_MOTION    = 14.84949251
ECCENTRICITY   = .0084175
INCLINATION    = 98.2519
RA_OF_ASC_NODE = 126.4821
ARG_OF_PERICENTER = 337.9464
MEAN_ANOMALY   = 21.8136

EPHEMERIS_TYPE = 0
CLASSIFICATION_TYPE = U
NORAD_CAT_ID   = 28499
ELEMENT_SET_NO = 999
REV_AT_EPOCH   = 12994
BSTAR          = .10607E-3
MEAN_MOTION_DOT = .897E-5
MEAN_MOTION_DDOT = 0

