ENVISAT                 
1 27386U 02009A   25326.87992833  .00000134  00000+0  57248-4 0  9991
2 27386  98.3569 278.1271 0001259  80.9680 340.2358 14.38988427243811
IDEFIX & ARIANE 42P R/B 
1 27422U 02021B   25326.79470360  .00000328  00000+0  14138-3 0  9998
2 27422  98.5758 261.7476 0012440 137.8269 222.3873 14.30928994228739
AQUA                    
1 27424U 02022A   25327.19313191  .00001138  00000+0  23809-3 0  9999
2 27424  98.4010 287.7585 0000596  79.7525  44.9604 14.61740456253173
CZ-4B R/B               
1 27432U 02024C   25327.12157939  .00000067  00000+0  57775-4 0  9999
2 27432  98.9027  15.9590 0049523 326.6410  88.0755 14.14521974214175
MIDORI II (ADEOS-II)    
1 27597U 02056A   25326.83280853  .00000317  00000+0  14280-3 0  9996
2 27597  98.7607 279.6879 0000885  22.6239 337.4981 14.29186034195033
H-2A R/B                
1 27601U 02056E   25326.93112042  .00000291  00000+0  11639-3 0  9993
2 27601  98.3036 286.4800 0071334 119.2150 309.6028 14.33654156198815
CZ-4B R/B               
1 28059U 03049C   25326.92629362  .00000400  00000+0  10347-3 0  9998
2 28059  98.6774 312.7434 0047872 196.2417 163.7247 14.54882983171077
CZ-2C R/B               
1 28222U 04012C   25327.10714372  .00031151  00000+0  48374-3 0  9996
2 28222  97.7448  18.1324 0017958 346.2802  13.7960 15.53732027187671
SL-16 R/B               
1 28353U 04021B   25326.82177700  .00000215  00000+0  13653-3 0  9996
2 28353  71.0006  96.7613 0006194 221.5798 138.4854 14.14580262107726
CZ-4B R/B               
1 28415U 04035C   25327.10073735  .00008423  00000+0  31621-3 0  9999
2 28415  97.3627 357.7108 0033289 349.5785  10.4760 15.26928650163634
CZ-2C R/B               
1 28480U 04046B   25326.76424998  .00000198  00000+0  88291-4 0  9992
2 28480  98.1971 243.3858 0140672 110.8852 250.7455 14.26927639 93253
ARIANE 5 R/B            
1 28499U 04049H   25326.90977249  .00000897  00000+0  10607-3 0  9994
2 28499  98.2519 126.4821 0084175 337.9464  21.8136 14.84949251129946
